<?xml version="1.0" encoding="UTF-8"?>
<ndm xmlns:xsi="http://www.w3.org/2001/XMLSchema-instance" xsi:noNamespaceSchemaLocation="https://sanaregistry.org/r/ndmxml_unqualified/ndmxml-2.0.0-master-2.0.xsd">
<omm id="CCSDS_OMM_VERS" version="2.0">
<header><CREATION_DATE/><ORIGINATOR/></header><body><segment><metadata><OBJECT_NAME>KUIPER-00125</OBJECT_NAME><OBJECT_ID>2025-228H</OBJECT_ID><CENTER_NAME>EARTH</CENTER_NAME><REF_FRAME>TEME</REF_FRAME><TIME_SYSTEM>UTC</TIME_SYSTEM><MEAN_ELEMENT_THEORY>SGP4</MEAN_ELEMENT_THEORY></metadata><data><meanElements><EPOCH>2026-01-25T20:00:03.000384</EPOCH><MEAN_MOTION>14.97474118</MEAN_MOTION><ECCENTRICITY>.0002076</ECCENTRICITY><INCLINATION>51.8942</INCLINATION><RA_OF_ASC_NODE>170.8778</RA_OF_ASC_NODE><ARG_OF_PERICENTER>156.6843</ARG_OF_PERICENTER><MEAN_ANOMALY>154.4117</MEAN_ANOMALY></meanElements><tleParameters><EPHEMERIS_TYPE>0</EPHEMERIS_TYPE><CLASSIFICATION_TYPE>U</CLASSIFICATION_TYPE><NORAD_CAT_ID>65954</NORAD_CAT_ID><ELEMENT_SET_NO>999</ELEMENT_SET_NO><REV_AT_EPOCH>513</REV_AT_EPOCH><BSTAR>-.94844E-1</BSTAR><MEAN_MOTION_DOT>-.1034599E-1</MEAN_MOTION_DOT><MEAN_MOTION_DDOT>0</MEAN_MOTION_DDOT></tleParameters></data></segment></body></omm>
<omm id="CCSDS_OMM_VERS" version="2.0">
<header><CREATION_DATE/><ORIGINATOR/></header><body><segment><metadata><OBJECT_NAME>KUIPER-00126</OBJECT_NAME><OBJECT_ID>2025-228J</OBJECT_ID><CENTER_NAME>EARTH</CENTER_NAME><REF_FRAME>TEME</REF_FRAME><TIME_SYSTEM>UTC</TIME_SYSTEM><MEAN_ELEMENT_THEORY>SGP4</MEAN_ELEMENT_THEORY></metadata><data><meanElements><EPOCH>2026-01-25T20:20:33.496224</EPOCH><MEAN_MOTION>14.79931305</MEAN_MOTION><ECCENTRICITY>.0000523</ECCENTRICITY><INCLINATION>51.8973</INCLINATION><RA_OF_ASC_NODE>190.0555</RA_OF_ASC_NODE><ARG_OF_PERICENTER>98.0807</ARG_OF_PERICENTER><MEAN_ANOMALY>262.0214</MEAN_ANOMALY></meanElements><tleParameters><EPHEMERIS_TYPE>0</EPHEMERIS_TYPE><CLASSIFICATION_TYPE>U</CLASSIFICATION_TYPE><NORAD_CAT_ID>65955</NORAD_CAT_ID><ELEMENT_SET_NO>999</ELEMENT_SET_NO><REV_AT_EPOCH>1688</REV_AT_EPOCH><BSTAR>.72526E-3</BSTAR><MEAN_MOTION_DOT>.5312E-4</MEAN_MOTION_DOT><MEAN_MOTION_DDOT>0</MEAN_MOTION_DDOT></tleParameters></data></segment></body></omm>
<omm id="CCSDS_OMM_VERS" version="2.0">
<header><CREATION_DATE/><ORIGINATOR/></header><body><segment><metadata><OBJECT_NAME>KUIPER-00127</OBJECT_NAME><OBJECT_ID>2025-228K</OBJECT_ID><CENTER_NAME>EARTH</CENTER_NAME><REF_FRAME>TEME</REF_FRAME><TIME_SYSTEM>UTC</TIME_SYSTEM><MEAN_ELEMENT_THEORY>SGP4</MEAN_ELEMENT_THEORY></metadata><data><meanElements><EPOCH>2026-01-25T19:51:51.505344</EPOCH><MEAN_MOTION>14.98265955</MEAN_MOTION><ECCENTRICITY>.0005095</ECCENTRICITY><INCLINATION>51.8934</INCLINATION><RA_OF_ASC_NODE>183.1321</RA_OF_ASC_NODE><ARG_OF_PERICENTER>209.0177</ARG_OF_PERICENTER><MEAN_ANOMALY>151.0511</MEAN_ANOMALY></meanElements><tleParameters><EPHEMERIS_TYPE>0</EPHEMERIS_TYPE><CLASSIFICATION_TYPE>U</CLASSIFICATION_TYPE><NORAD_CAT_ID>65956</NORAD_CAT_ID><ELEMENT_SET_NO>999</ELEMENT_SET_NO><REV_AT_EPOCH>1698</REV_AT_EPOCH><BSTAR>.81781E-3</BSTAR><MEAN_MOTION_DOT>.9582E-4</MEAN_MOTION_DOT><MEAN_MOTION_DDOT>0</MEAN_MOTION_DDOT></tleParameters></data></segment></body></omm>
<omm id="CCSDS_OMM_VERS" version="2.0">
<header><CREATION_DATE/><ORIGINATOR/></header><body><segment><metadata><OBJECT_NAME>KUIPER-00128</OBJECT_NAME><OBJECT_ID>2025-228L</OBJECT_ID><CENTER_NAME>EARTH</CENTER_NAME><REF_FRAME>TEME</REF_FRAME><TIME_SYSTEM>UTC</TIME_SYSTEM><MEAN_ELEMENT_THEORY>SGP4</MEAN_ELEMENT_THEORY></metadata><data><meanElements><EPOCH>2026-01-25T16:29:07.939680</EPOCH><MEAN_MOTION>14.79991246</MEAN_MOTION><ECCENTRICITY>.0000726</ECCENTRICITY><INCLINATION>51.8964</INCLINATION><RA_OF_ASC_NODE>183.2738</RA_OF_ASC_NODE><ARG_OF_PERICENTER>73.3627</ARG_OF_PERICENTER><MEAN_ANOMALY>286.7415</MEAN_ANOMALY></meanElements><tleParameters><EPHEMERIS_TYPE>0</EPHEMERIS_TYPE><CLASSIFICATION_TYPE>U</CLASSIFICATION_TYPE><NORAD_CAT_ID>65957</NORAD_CAT_ID><ELEMENT_SET_NO>999</ELEMENT_SET_NO><REV_AT_EPOCH>1696</REV_AT_EPOCH><BSTAR>.82464E-3</BSTAR><MEAN_MOTION_DOT>.608E-4</MEAN_MOTION_DOT><MEAN_MOTION_DDOT>0</MEAN_MOTION_DDOT></tleParameters></data></segment></body></omm>
<omm id="CCSDS_OMM_VERS" version="2.0">
<header><CREATION_DATE/><ORIGINATOR/></header><body><segment><metadata><OBJECT_NAME>KUIPER-00129</OBJECT_NAME><OBJECT_ID>2025-228M</OBJECT_ID><CENTER_NAME>EARTH</CENTER_NAME><REF_FRAME>TEME</REF_FRAME><TIME_SYSTEM>UTC</TIME_SYSTEM><MEAN_ELEMENT_THEORY>SGP4</MEAN_ELEMENT_THEORY></metadata><data><meanElements><EPOCH>2026-01-25T20:00:03.000384</EPOCH><MEAN_MOTION>14.79899205</MEAN_MOTION><ECCENTRICITY>.0001967</ECCENTRICITY><INCLINATION>51.8990</INCLINATION><RA_OF_ASC_NODE>177.6143</RA_OF_ASC_NODE><ARG_OF_PERICENTER>132.0712</ARG_OF_PERICENTER><MEAN_ANOMALY>79.6839</MEAN_ANOMALY></meanElements><tleParameters><EPHEMERIS_TYPE>0</EPHEMERIS_TYPE><CLASSIFICATION_TYPE>U</CLASSIFICATION_TYPE><NORAD_CAT_ID>65958</NORAD_CAT_ID><ELEMENT_SET_NO>999</ELEMENT_SET_NO><REV_AT_EPOCH>582</REV_AT_EPOCH><BSTAR>.43199E-2</BSTAR><MEAN_MOTION_DOT>.32846E-3</MEAN_MOTION_DOT><MEAN_MOTION_DDOT>0</MEAN_MOTION_DDOT></tleParameters></data></segment></body></omm>
<omm id="CCSDS_OMM_VERS" version="2.0">
<header><CREATION_DATE/><ORIGINATOR/></header><body><segment><metadata><OBJECT_NAME>KUIPER-00130</OBJECT_NAME><OBJECT_ID>2025-228N</OBJECT_ID><CENTER_NAME>EARTH</CENTER_NAME><REF_FRAME>TEME</REF_FRAME><TIME_SYSTEM>UTC</TIME_SYSTEM><MEAN_ELEMENT_THEORY>SGP4</MEAN_ELEMENT_THEORY></metadata><data><meanElements><EPOCH>2026-01-25T03:34:58.476288</EPOCH><MEAN_MOTION>14.79957433</MEAN_MOTION><ECCENTRICITY>.00010469</ECCENTRICITY><INCLINATION>51.8974</INCLINATION><RA_OF_ASC_NODE>183.1331</RA_OF_ASC_NODE><ARG_OF_PERICENTER>77.5326</ARG_OF_PERICENTER><MEAN_ANOMALY>282.5753</MEAN_ANOMALY></meanElements><tleParameters><EPHEMERIS_TYPE>0</EPHEMERIS_TYPE><CLASSIFICATION_TYPE>U</CLASSIFICATION_TYPE><NORAD_CAT_ID>65959</NORAD_CAT_ID><ELEMENT_SET_NO>999</ELEMENT_SET_NO><REV_AT_EPOCH>721</REV_AT_EPOCH><BSTAR>.26305271E-3</BSTAR><MEAN_MOTION_DOT>.1786E-4</MEAN_MOTION_DOT><MEAN_MOTION_DDOT>0</MEAN_MOTION_DDOT></tleParameters></data></segment></body></omm>
<omm id="CCSDS_OMM_VERS" version="2.0">
<header><CREATION_DATE/><ORIGINATOR/></header><body><segment><metadata><OBJECT_NAME>KUIPER-00134</OBJECT_NAME><OBJECT_ID>2025-228P</OBJECT_ID><CENTER_NAME>EARTH</CENTER_NAME><REF_FRAME>TEME</REF_FRAME><TIME_SYSTEM>UTC</TIME_SYSTEM><MEAN_ELEMENT_THEORY>SGP4</MEAN_ELEMENT_THEORY></metadata><data><meanElements><EPOCH>2026-01-25T19:48:38.417760</EPOCH><MEAN_MOTION>15.37102495</MEAN_MOTION><ECCENTRICITY>.0006937</ECCENTRICITY><INCLINATION>51.8747</INCLINATION><RA_OF_ASC_NODE>167.7770</RA_OF_ASC_NODE><ARG_OF_PERICENTER>172.2390</ARG_OF_PERICENTER><MEAN_ANOMALY>187.8705</MEAN_ANOMALY></meanElements><tleParameters><EPHEMERIS_TYPE>0</EPHEMERIS_TYPE><CLASSIFICATION_TYPE>U</CLASSIFICATION_TYPE><NORAD_CAT_ID>65960</NORAD_CAT_ID><ELEMENT_SET_NO>999</ELEMENT_SET_NO><REV_AT_EPOCH>1719</REV_AT_EPOCH><BSTAR>.1623E-2</BSTAR><MEAN_MOTION_DOT>.59984E-3</MEAN_MOTION_DOT><MEAN_MOTION_DDOT>0</MEAN_MOTION_DDOT></tleParameters></data></segment></body></omm>
<omm id="CCSDS_OMM_VERS" version="2.0">
<header><CREATION_DATE/><ORIGINATOR/></header><body><segment><metadata><OBJECT_NAME>KUIPER-00135</OBJECT_NAME><OBJECT_ID>2025-228Q</OBJECT_ID><CENTER_NAME>EARTH</CENTER_NAME><REF_FRAME>TEME</REF_FRAME><TIME_SYSTEM>UTC</TIME_SYSTEM><MEAN_ELEMENT_THEORY>SGP4</MEAN_ELEMENT_THEORY></metadata><data><meanElements><EPOCH>2026-01-25T00:00:04.000320</EPOCH><MEAN_MOTION>14.79979885</MEAN_MOTION><ECCENTRICITY>.00007014</ECCENTRICITY><INCLINATION>51.9005</INCLINATION><RA_OF_ASC_NODE>183.8602</RA_OF_ASC_NODE><ARG_OF_PERICENTER>102.6827</ARG_OF_PERICENTER><MEAN_ANOMALY>1.3465</MEAN_ANOMALY></meanElements><tleParameters><EPHEMERIS_TYPE>0</EPHEMERIS_TYPE><CLASSIFICATION_TYPE>U</CLASSIFICATION_TYPE><NORAD_CAT_ID>65961</NORAD_CAT_ID><ELEMENT_SET_NO>999</ELEMENT_SET_NO><REV_AT_EPOCH>516</REV_AT_EPOCH><BSTAR>-.28546417E-3</BSTAR><MEAN_MOTION_DOT>-.2399E-4</MEAN_MOTION_DOT><MEAN_MOTION_DDOT>0</MEAN_MOTION_DDOT></tleParameters></data></segment></body></omm>

</ndm>
