KUIPER-00125            
1 65954U 25228H   26025.83336806 -.01034599  00000+0 -94844-1 0  9992
2 65954  51.8942 170.8778 0002076 156.6843 154.4117 14.97474118  5134
KUIPER-00126            
1 65955U 25228J   26025.84760991  .00005312  00000+0  72526-3 0  9993
2 65955  51.8973 190.0555 0000523  98.0807 262.0214 14.79931305 16884
KUIPER-00127            
1 65956U 25228K   26025.82767946  .00009582  00000+0  81781-3 0  9995
2 65956  51.8934 183.1321 0005095 209.0177 151.0511 14.98265955 16989
KUIPER-00128            
1 65957U 25228L   26025.68689745  .00006080  00000+0  82464-3 0  9999
2 65957  51.8964 183.2738 0000726  73.3627 286.7415 14.79991246 16969
KUIPER-00129            
1 65958U 25228M   26025.83336806  .00032846  00000+0  43199-2 0  9994
2 65958  51.8990 177.6143 0001967 132.0712  79.6839 14.79899205  5826
KUIPER-00130            
1 65959U 25228N   26025.14928792  .00001786  00000+0  26305-3 0  9990
2 65959  51.8974 183.1331 0001046  77.5326 282.5753 14.79957433  7215
KUIPER-00134            
1 65960U 25228P   26025.82544465  .00059984  00000+0  16230-2 0  9996
2 65960  51.8747 167.7770 0006937 172.2390 187.8705 15.37102495 17195
KUIPER-00135            
1 65961U 25228Q   26025.00004630 -.00002399  00000+0 -28546-3 0  9996
2 65961  51.9005 183.8602 0000701 102.6827   1.3465 14.79979885  5169
